[{"OBJECT_NAME":"SATGUS","OBJECT_ID":"2025-009DJ","EPOCH":"2026-03-09T16:57:39.644640","MEAN_MOTION":14.99840473,"ECCENTRICITY":0.00056702,"INCLINATION":97.7097,"RA_OF_ASC_NODE":150.9679,"ARG_OF_PERICENTER":96.3538,"MEAN_ANOMALY":263.8332,"EPHEMERIS_TYPE":0,"CLASSIFICATION_TYPE":"U","NORAD_CAT_ID":62713,"ELEMENT_SET_NO":999,"REV_AT_EPOCH":6264,"BSTAR":0.00076063433,"MEAN_MOTION_DOT":9.37e-5,"MEAN_MOTION_DDOT":0},{"OBJECT_NAME":"STARLINK-32913","OBJECT_ID":"2025-037X","EPOCH":"2026-03-09T21:21:27.156096","MEAN_MOTION":14.98330525,"ECCENTRICITY":0.0002619,"INCLINATION":70.0039,"RA_OF_ASC_NODE":353.8791,"ARG_OF_PERICENTER":266.0186,"MEAN_ANOMALY":94.0674,"EPHEMERIS_TYPE":0,"CLASSIFICATION_TYPE":"U","NORAD_CAT_ID":63098,"ELEMENT_SET_NO":999,"REV_AT_EPOCH":5864,"BSTAR":0.00067472314,"MEAN_MOTION_DOT":7.967e-5,"MEAN_MOTION_DDOT":0}]
